
    {
        "ARG_OF_PERICENTER": 252.9526,
        "BSTAR": 0.00079625,
        "CLASSIFICATION_TYPE": "U",
        "ECCENTRICITY": 0.0011973,
        "ELEMENT_SET_NO": 999,
        "EPHEMERIS_TYPE": 0,
        "EPOCH": "2026-03-29T02:11:14.324064",
        "INCLINATION": 51.6326,
        "MEAN_ANOMALY": 107.0153,
        "MEAN_MOTION": 15.53980859,
        "MEAN_MOTION_DDOT": 0,
        "MEAN_MOTION_DOT": 0.00052441,
        "NORAD_CAT_ID": 67685,
        "OBJECT_ID": "1998-067YB",
        "OBJECT_NAME": "GXIBA-1",
        "RA_OF_ASC_NODE": 335.2157,
        "REV_AT_EPOCH": 780
    },
    {
        "ARG_OF_PERICENTER": 224.8409,
        "BSTAR": 0.00089979,
        "CLASSIFICATION_TYPE": "U",
        "ECCENTRICITY": 0.00091,
        "ELEMENT_SET_NO": 999,
        "EPHEMERIS_TYPE": 0,
        "EPOCH": "2026-03-29T01:49:58.347264",
        "INCLINATION": 51.6323,
        "MEAN_ANOMALY": 135.1847,
        "MEAN_MOTION": 15.54935303,
        "MEAN_MOTION_DDOT": 0,
        "MEAN_MOTION_DOT": 0.00061436,
        "NORAD_CAT_ID": 67686,
        "OBJECT_ID": "1998-067YC",
        "OBJECT_NAME": "UITMSAT-2",
        "RA_OF_ASC_NODE": 335.1195,
        "REV_AT_EPOCH": 780
    },
    {
        "ARG_OF_PERICENTER": 227.2512,
        "BSTAR": 0.00078829,
        "CLASSIFICATION_TYPE": "U",
        "ECCENTRICITY": 0.0008608,
        "ELEMENT_SET_NO": 999,
        "EPHEMERIS_TYPE": 0,
        "EPOCH": "2026-03-28T23:13:09.401088",
        "INCLINATION": 51.6327,
        "MEAN_ANOMALY": 132.7755,
        "MEAN_MOTION": 15.53712638,
        "MEAN_MOTION_DDOT": 0,
        "MEAN_MOTION_DOT": 0.00051323,
        "NORAD_CAT_ID": 67687,
        "OBJECT_ID": "1998-067YD",
        "OBJECT_NAME": "HMU-SAT2",
        "RA_OF_ASC_NODE": 335.8929,
        "REV_AT_EPOCH": 770
    },
    {
        "ARG_OF_PERICENTER": 224.9163,
        "BSTAR": 0.0008474,
        "CLASSIFICATION_TYPE": "U",
        "ECCENTRICITY": 0.0008819,
        "ELEMENT_SET_NO": 999,
        "EPHEMERIS_TYPE": 0,
        "EPOCH": "2026-03-28T22:54:31.520736",
        "INCLINATION": 51.6331,
        "MEAN_ANOMALY": 135.1115,
        "MEAN_MOTION": 15.54486105,
        "MEAN_MOTION_DDOT": 0,
        "MEAN_MOTION_DOT": 0.00056841,
        "NORAD_CAT_ID": 67688,
        "OBJECT_ID": "1998-067YE",
        "OBJECT_NAME": "LEOPARD",
        "RA_OF_ASC_NODE": 335.8065,
        "REV_AT_EPOCH": 770
    },
    {
        "ARG_OF_PERICENTER": 245.2164,
        "BSTAR": 0.00023326,
        "CLASSIFICATION_TYPE": "U",
        "ECCENTRICITY": 0.0006215,
        "ELEMENT_SET_NO": 999,
        "EPHEMERIS_TYPE": 0,
        "EPOCH": "2026-03-29T03:11:03.043104",
        "INCLINATION": 51.6344,
        "MEAN_ANOMALY": 114.8178,
        "MEAN_MOTION": 15.4862434,
        "MEAN_MOTION_DDOT": 0,
        "MEAN_MOTION_DOT": 0.0001226,
        "NORAD_CAT_ID": 67796,
        "OBJECT_ID": "2026-031A",
        "OBJECT_NAME": "CREW DRAGON 12",
        "RA_OF_ASC_NODE": 336.2407,
        "REV_AT_EPOCH": 55930
    },
    {
        "ARG_OF_PERICENTER": 245.2164,
        "BSTAR": 0.00023326,
        "CLASSIFICATION_TYPE": "U",
        "ECCENTRICITY": 0.0006215,
        "ELEMENT_SET_NO": 999,
        "EPHEMERIS_TYPE": 0,
        "EPOCH": "2026-03-29T03:11:03.043104",
        "INCLINATION": 51.6344,
        "MEAN_ANOMALY": 114.8178,
        "MEAN_MOTION": 15.4862434,
        "MEAN_MOTION_DDOT": 0,
        "MEAN_MOTION_DOT": 0.0001226,
        "NORAD_CAT_ID": 68319,
        "OBJECT_ID": "2026-058A",
        "OBJECT_NAME": "PROGRESS-MS 33",
        "RA_OF_ASC_NODE": 336.2407,
        "REV_AT_EPOCH": 81
    }