GXIBA-1                 
1 67685U 98067YB  26088.09113801  .00052441  00000+0  79625-3 0  9996
2 67685  51.6326 335.2157 0011973 252.9526 107.0153 15.53980859  7800
UITMSAT-2               
1 67686U 98067YC  26088.07636976  .00061436  00000+0  89979-3 0  9995
2 67686  51.6323 335.1195 0009100 224.8409 135.1847 15.54935303  7803
HMU-SAT2                
1 67687U 98067YD  26087.96746992  .00051323  00000+0  78829-3 0  9999
2 67687  51.6327 335.8929 0008608 227.2512 132.7755 15.53712638  7707
LEOPARD                 
1 67688U 98067YE  26087.95453149  .00056841  00000+0  84740-3 0  9997
2 67688  51.6331 335.8065 0008819 224.9163 135.1115 15.54486105  7709
CREW DRAGON 12          
1 67796U 26031A   26088.13267411  .00012260  00000+0  23326-3 0  9995
2 67796  51.6344 336.2407 0006215 245.2164 114.8178 15.48624340559302
PROGRESS-MS 33          
1 68319U 26058A   26088.13267411  .00012260  00000+0  23326-3 0  9996
2 68319  51.6344 336.2407 0006215 245.2164 114.8178 15.48624340   811
